CAS-2T & KS-1Q          
1 41847U 16066G   20205.38803661  .00000048  00000-0  16836-4 0  9997
2 41847  98.6513 256.2616 0366713 121.7816 241.9644 14.38079262194587
NAYIF-1 (EO-88)         
1 42017U 17008BX  20205.14267572  .00000969  00000-0  39796-4 0  9995
2 42017  97.3580 272.1825 0006040 179.8307 180.2935 15.26576860190992
MAX VALIER SAT          
1 42778U 17036P   20205.88108268  .00000552  00000-0  26614-4 0  9990
2 42778  97.3024 258.5053 0010488 251.2024 108.8075 15.22671106171278
RADFXSAT (FOX-1B)       
1 43017U 17073E   20205.58510516  .00000254  00000-0  25825-4 0  9990
2 43017  97.7208 116.4271 0255496 292.8077  64.6331 14.78976100144508
FOX-1D (AO-92)          
1 43137U 18004AC  20205.46156682  .00000629  00000-0  28781-4 0  9995
2 43137  97.4442 276.3770 0007535 293.3747  66.6697 15.24177647140534
DIWATA-2B               
1 43678U 18084H   20205.83256534  .00000286  00000-0  34124-4 0  9998
2 43678  97.8889 324.2426 0011165  61.9714 298.2650 14.91641631 94443
ES'HAIL 2               
1 43700U 18090A   20205.81074764  .00000138  00000-0  00000+0 0  9999
2 43700   0.0135  78.4654 0001377  75.0957 106.0655  1.00271180  6313
FOX-1CLIFF (AO-95)      
1 43770U 18099N   20205.45062244 -.00000157  00000-0 -90964-5 0  9992
2 43770  97.7042 276.2014 0016041  78.6027 281.6994 14.95008435 89292
ITASAT 1                
1 43786U 18099AE  20205.43942134 -.00000183  00000-0 -11392-4 0  9998
2 43786  97.7061 276.6357 0016698  72.5581 287.7464 14.95346615 89317
JY1SAT (JO-97)          
1 43803U 18099AX  20205.44965984 -.00000194  00000-0 -12267-4 0  9991
2 43803  97.7019 276.4562 0016554  72.9158 287.3874 14.95525410 89314
PSAT2 (NO-104)          
1 44354U 19036R   20205.49635254  .00009236  00000-0  13287-3 0  9990
2 44354  28.5311 143.8240 0362337 336.0992  22.3152 15.03930893 59257
BRICSAT2 (NO-103)       
1 44355U 19036S   20205.50415309  .00019591  00000-0  27187-3 0  9999
2 44355  28.5307 133.1309 0339455 353.4812   6.1439 15.09726916 59365
JAISAT-1                
1 44419U 19038F   20205.80234230  .00000531  00000-0  33855-4 0  9991
2 44419  97.5407 166.9775 0021921  10.0160 350.1503 15.12827456 58090
DUCHIFAT-3              
1 44854U 19089C   20205.79564063  .00000123  00000-0  16395-4 0  9995
2 44854  36.9687 243.5763 0009275 351.8569   8.2027 14.99086585 33758
RS-44 & BREEZE-KM R/B   
1 44909U 19096E   20205.63565923  .00000028  00000-0  61285-4 0  9995
2 44909  82.5237 331.2694 0218208 141.7161 219.9663 12.79708154 26812
ORBITAL FACTORY 2 (OF-2)
1 45113U 19071C   20205.39382201  .00000684  00000-0  32382-4 0  9999
2 45113  51.6431 189.9165 0012838 185.1385 174.9467 15.33450174 26647
HUSKYSAT-1              
1 45119U 19071J   20205.23691989  .00001011  00000-0  42068-4 0  9991
2 45119  51.6426 190.3696 0012130 180.6330 179.4639 15.33659399 26615
